0 FENGYUN 1C DEB
1 30543U 99025AKH 13281.51427140 -.00000010  00000-0  22213-4 0  7993
2 30543 099.1317 283.8579 0071203 134.5633 355.7354 14.01286271342572
0 FENGYUN 1C DEB
1 30543U 99025AKH 13282.99908372 -.00000005  00000-0  25363-4 0  8003
2 30543 099.1315 285.3431 0071276 130.4940 286.0394 14.01286914342787
0 FENGYUN 1C DEB
1 30543U 99025AKH 13286.51189005 -.00000031  00000-0  87295-5 0  8023
2 30543 099.1307 288.8570 0071453 120.8968 006.7676 14.01287489343273
0 FENGYUN 1C DEB
1 30543U 99025AKH 13287.58296073  .00000016  00000-0  39149-4 0  8032
2 30543 099.1305 289.9284 0071490 117.9740 009.8965 14.01287931343425
0 FENGYUN 1C DEB
1 30543U 99025AKH 13288.71199377  .00000027  00000-0  46460-4 0  8044
2 30543 099.1305 291.0574 0071524 114.8915 305.4269 14.01288202343580
0 FENGYUN 1C DEB
1 30543U 99025AKH 13289.99636633 -.00000001  00000-0  27988-4 0  8054
2 30543 099.1305 292.3418 0071570 111.3931 304.5759 14.01288564343767
0 FENGYUN 1C DEB
1 30543U 99025AKH 13291.51014912 -.00000001  00000-0  28152-4 0  8060
2 30543 099.1306 293.8557 0071607 107.2626 021.0185 14.01288792343974
0 FENGYUN 1C DEB
1 30543U 99025AKH 13292.51411406  .00000015  00000-0  38251-4 0  8076
2 30543 099.1306 294.8597 0071635 104.5322 045.6210 14.01288806344117
0 FENGYUN 1C DEB
1 30543U 99025AKH 13293.71097115  .00000047  00000-0  59241-4 0  8084
2 30543 099.1305 296.0567 0071643 101.2625 323.3039 14.01288786344286
0 FENGYUN 1C DEB
1 30543U 99025AKH 13294.98753991  .00000059  00000-0  67042-4 0  8097
2 30543 099.1304 297.3335 0071657 097.7841 283.0910 14.01289163344466
